INTELSAT 10 (IS-10)     
1 26766U 01019A   26074.44288545 -.00000041  00000+0  00000+0 0  9991
2 26766   8.8509  60.2014 0005532 275.0760  91.4588  0.99037806 44650
INTELSAT 902 (IS-902)   
1 26900U 01039A   26074.41428534 -.00000280  00000+0  00000+0 0  9999
2 26900   5.8811  72.9197 0004613 283.1251 275.9988  1.00270718 89756
INTELSAT 904 (IS-904)   
1 27380U 02007A   26074.31244875 -.00000222  00000+0  00000+0 0  9997
2 27380   6.6846  70.3034 0006679 316.3531 227.2529  1.00270725 50827
DIRECTV 5 (TEMPO 1)     
1 27426U 02023A   26074.54499501 -.00000055  00000+0  00000+0 0  9993
2 27426   4.6372  76.4723 0003449 285.7147 257.0554  1.00272167 87186
INTELSAT 905 (IS-905)   
1 27438U 02027A   26067.69374378  .00000095  00000+0  00000+0 0  9995
2 27438   6.5009  71.0066 0003104 285.0028 282.9238  1.00272811 50358
GALAXY 3C (G-3C)        
1 27445U 02030A   26074.54802837 -.00000151  00000+0  00000+0 0  9999
2 27445   3.4898  79.2936 0001349  25.3658 170.9477  1.00271758 45553
INTELSAT 906 (IS-906)   
1 27513U 02041A   26074.57957516  .00000016  00000+0  00000+0 0  9994
2 27513   5.5655  74.0663 0003037 279.3720  92.5123  1.00271685 86090
GALAXY 13 (HORIZONS-1)  
1 27954U 03044A   26074.60843529  .00000132  00000+0  00000+0 0  9998
2 27954   1.1766  85.1014 0002208 269.5413 247.5691  1.00272106 45632
INTELSAT 10-02          
1 28358U 04022A   26074.42447793 -.00000012  00000+0  00000+0 0  9995
2 28358   0.0235 117.6946 0001310 293.7421 273.4097  1.00270822 79612
DIRECTV 8               
1 28659U 05019A   26074.52006572  .00000000  00000+0  00000+0 0  9999
2 28659   0.0012 181.6105 0003230 186.3907 233.2792  1.00272576 76134
GALAXY 28 (G-28)        
1 28702U 05022A   26074.41887868 -.00000199  00000+0  00000+0 0  9995
2 28702   3.0557  80.1031 0002153 284.5813 292.0397  1.00273896 51033
GALAXY 16 (G-16)        
1 29236U 06023A   26074.04803044 -.00000127  00000+0  00000+0 0  9994
2 29236   0.0260 214.4338 0002732 153.1175  83.3792  1.00270535 72020
DIRECTV 9S              
1 29494U 06043A   26074.54681502 -.00000113  00000+0  00000+0 0  9995
2 29494   2.1773  82.0482 0003230 286.5033 260.2499  1.00272036 50445
GALAXY 17 (G-17)        
1 31307U 07016B   26074.55002170 -.00000205  00000+0  00000+0 0  9993
2 31307   2.7333  81.0850 0003381 284.4665 280.5995  1.00270869 68865
DIRECTV 10              
1 31862U 07032A   26074.41065829 -.00000187  00000+0  00000+0 0  9991
2 31862   0.1587  98.0261 0006787 281.5857 274.2984  0.98339627 44644
INTELSAT 11 (IS-11)     
1 32253U 07044B   26074.60193525 -.00000172  00000+0  00000+0 0  9999
2 32253   3.3199  79.8108 0004194 210.4111 276.9692  0.99053399 67521
HORIZONS-2              
1 32388U 07063B   26074.55218838 -.00000253  00000+0  00000+0 0  9998
2 32388   2.3590  81.7988 0002402 280.1151 296.2325  1.00272665 66877
DIRECTV 11              
1 32729U 08013A   26074.22475088 -.00000127  00000+0  00000+0 0  9999
2 32729   0.0182 340.0643 0000243  53.4656 121.0125  1.00271963 44654
GALAXY 18 (G-18)        
1 32951U 08024A   26073.97202346  .00000024  00000+0  00000+0 0  9999
2 32951   0.0195 108.6449 0003055 259.1238  31.7351  1.00272991 44900
INTELSAT 25 (IS-25)     
1 33153U 08034A   26074.06146382 -.00000224  00000+0  00000+0 0  9996
2 33153   2.4631  81.4725 0003239 251.3174 190.4936  1.00270237 64756
GALAXY 19 (G-19)        
1 33376U 08045A   26074.11979074 -.00000140  00000+0  00000+0 0  9990
2 33376   0.0344 251.8682 0002785 114.7662 112.2031  1.00271572 63965
FM-5                    
1 35493U 09034A   26074.12195741 -.00000202  00000+0  00000+0 0  9992
2 35493   0.0382 264.8602 0000693 341.7628 243.8509  1.00278280 45701
INTELSAT 14 (IS-14)     
1 36097U 09064A   26074.41532534 -.00000274  00000+0  00000+0 0  9992
2 36097   0.0217  94.7709 0002341 261.4584 281.3003  1.00271679 59669
INTELSAT 15 (IS-15)     
1 36106U 09067A   26074.58373518 -.00000186  00000+0  00000+0 0  9991
2 36106   0.0156 106.8875 0002245 249.2262 112.3594  1.00271434 40297
DIRECTV 12              
1 36131U 09075A   26074.54646836 -.00000104  00000+0  00000+0 0  9990
2 36131   0.0094  75.6065 0000474 340.5117 211.0305  1.00270322 45619
INTELSAT 16 (IS-16)     
1 36397U 10006A   26073.98129683 -.00000245  00000+0  00000+0 0  9999
2 36397   0.0234  89.0587 0001982 280.4404  80.1506  1.00271505 58709
XM-5                    
1 37185U 10053A   26073.97349679 -.00000024  00000+0  00000+0 0  9990
2 37185   0.0698 271.8650 0003580 256.4013 239.5673  1.00270062 56537
INTELSAT 17 (IS-17)     
1 37238U 10065B   26074.63270900 -.00000002  00000+0  00000+0 0  9992
2 37238   0.0230 203.9675 0002630 172.4486  90.5745  1.00272011 52310
INTELSAT 28 (IS-28)     
1 37392U 11016A   26074.41792535 -.00000225  00000+0  00000+0 0  9996
2 37392   1.5621  83.8205 0004597 273.7487 294.2046  1.00271619 52348
INTELSAT 18 (IS-18)     
1 37834U 11056A   26074.59420020  .00000052  00000+0  00000+0 0  9994
2 37834   0.0336 258.6350 0001704 105.2954 203.1597  1.00270813 52877
INTELSAT 22 (IS-22)     
1 38098U 12011A   26074.58113517 -.00000059  00000+0  00000+0 0  9996
2 38098   0.0251 109.9956 0001743 243.5929 100.8766  1.00270784  6245
INTELSAT 19 (IS-19)     
1 38356U 12030A   26074.57614234 -.00000057  00000+0  00000+0 0  9993
2 38356   0.0176 135.0087 0002927 225.3773 186.1985  1.00271715 49515
INTELSAT 20 (IS-20)     
1 38740U 12043A   26074.58044184 -.00000025  00000+0  00000+0 0  9991
2 38740   0.0176 127.9413 0002363  37.3841 285.2883  1.00271147 49805
INTELSAT 21 (IS-21)     
1 38749U 12045A   26074.55539507 -.00000286  00000+0  00000+0 0  9996
2 38749   0.0199 146.3086 0001910 225.2839 303.5029  1.00271645 49586
INTELSAT 23 (IS-23)     
1 38867U 12057A   26074.48502142 -.00000285  00000+0  00000+0 0  9996
2 38867   0.0369 253.1061 0000615 121.9581 279.6040  1.00276052 49014
FM-6                    
1 39360U 13058A   26074.40119860 -.00000017  00000+0  00000+0 0  9993
2 39360   0.0160 150.1191 0003404  37.8552  13.2457  1.00268030 45134
INTELSAT 30 (IS-30)     
1 40271U 14062A   26072.66324493 -.00000151  00000+0  00000+0 0  9997
2 40271   0.0155  82.4752 0001692  30.1295 202.3988  1.00272886  5835
DIRECTV 14              
1 40333U 14078B   26074.47584609 -.00000126  00000+0  00000+0 0  9993
2 40333   0.0044  72.9031 0000625  51.7765 120.4459  1.00269720 41107
DIRECTV 15              
1 40663U 15026A   26074.54646836 -.00000103  00000+0  00000+0 0  9997
2 40663   0.0217 106.4078 0000703  66.9580  93.6261  1.00272140 39524
SKY MEXICO-1            
1 40664U 15026B   26074.55123505 -.00000235  00000+0  00000+0 0  9998
2 40664   0.0159 174.6180 0002192 204.7064 273.4665  1.00271749 39513
INTELSAT 34 (IS-34)     
1 40874U 15039A   26072.91573539 -.00000286  00000+0  00000+0 0  9995
2 40874   0.0172 250.1605 0000254 178.7909  16.7448  1.00272479 38661
INTELSAT 31 (IS-31)     
1 41581U 16035A   26072.48001788 -.00000151  00000+0  00000+0 0  9993
2 41581   0.0385 250.9517 0001555 346.8834  11.0308  1.00274362 35723
INTELSAT 36 (IS-36)     
1 41747U 16053A   26072.20920001  .00000000  00000+0  00000+0 0  9997
2 41747   0.0193 126.4574 0001099 219.8444 328.3630  1.00272719 34997
INTELSAT 32E (IS-32E)   
1 41945U 17007B   26074.41567200 -.00000270  00000+0  00000+0 0  9990
2 41945   0.0190 146.1785 0000106 119.5820  13.7087  1.00271140 33288
INTELSAT 35E (IS-35E)   
1 42818U 17041A   26074.43794802 -.00000239  00000+0  00000+0 0  9995
2 42818   0.0103 209.7331 0002073 150.0269 296.4258  1.00271069 31870
INTELSAT 37E (IS-37E)   
1 42950U 17059A   26074.34937172 -.00000141  00000+0  00000+0 0  9992
2 42950   0.0142 132.3536 0002110 228.0060 280.3606  1.00272852 31123
AZERSPACE 2 (IS-38)     
1 43632U 18074A   26071.29767126  .00000138  00000+0  00000+0 0  9994
2 43632   0.0162 167.1748 0002142 185.4789 329.5515  1.00266327 27471
HORIZONS-3E             
1 43633U 18074B   26074.38517087 -.00000031  00000+0  00000+0 0  9990
2 43633   0.0183 339.3309 0000611  13.9371 127.3609  1.00272570 27400
AT&T T-16               
1 44333U 19034A   26074.54690169 -.00000116  00000+0  00000+0 0  9990
2 44333   0.0157 112.0195 0001271  61.2604  95.8871  1.00269664 24694
INTELSAT 39 (IS-39)     
1 44476U 19049B   26074.66924411  .00000033  00000+0  00000+0 0  9994
2 44476   0.0173 163.2293 0000625 352.2218 320.6887  1.00271065 24192
GALAXY 30 (G-30)        
1 46114U 20056C   26074.51794189  .00000000  00000+0  00000+0 0  9990
2 46114   0.0276 152.1155 0002001 214.6677 227.8002  1.00270055 20350
GALAXY 33 (G-33)        
1 54026U 22128A   26072.39905773  .00000079  00000+0  00000+0 0  9996
2 54026   0.0138 105.0382 0001794 258.0759 178.5705  1.00271687 12780
GALAXY 34 (G-34)        
1 54027U 22128B   26074.18479101  .00000058  00000+0  00000+0 0  9994
2 54027   0.0194 121.2654 0001384 235.7436 113.2853  1.00271715 12977
GALAXY 31 (G-31)        
1 54243U 22153A   26074.11502405  .00000012  00000+0  00000+0 0  9999
2 54243   0.0185 129.0634 0001397 240.5767  83.4825  1.00271947  6186
GALAXY 32 (G-32)        
1 54244U 22153B   26073.05128264 -.00000175  00000+0  00000+0 0  9990
2 54244   0.0167 115.0372 0002962 247.5224  96.5681  1.00271848 12198
GALAXY 35 (G-35)        
1 54741U 22170A   26074.54837503 -.00000163  00000+0  00000+0 0  9996
2 54741   0.0174 129.3279 0001944 226.8477 281.2679  1.00271934 11950
GALAXY 36 (G-36)        
1 54742U 22170B   26074.51681399 -.00000186  00000+0  00000+0 0  9999
2 54742   0.0125 174.2127 0002275 233.6072 222.3439  1.00271766 11833
GALAXY 37 (G-37)        
1 57493U 23112A   26074.54170167  .00000000  00000+0  00000+0 0  9995
2 57493   0.0236 163.8072 0002013 199.6750 237.6766  1.00270723  9605
